COSMOS 2501 (702K)      
1 40315U 14075A   25175.72509181  .00000089  00000+0  00000+0 0  9998
2 40315  63.6160 202.7476 0021823 211.8007 148.1364  2.13101377 82237
GPS BIIF-9  (PRN 26)    
1 40534U 15013A   25175.58133692  .00000069  00000+0  00000+0 0  9996
2 40534  53.2349 218.9723 0098984  35.1819 325.5550  2.00572739 74653
GSAT0203 (GALILEO 7)    
1 40544U 15017A   25174.81019692 -.00000090  00000+0  00000+0 0  9994
2 40544  56.8880 351.3606 0002007 265.2448  94.7398  1.70475984 63091
GSAT0204 (GALILEO 8)    
1 40545U 15017B   25174.47859026 -.00000088  00000+0  00000+0 0  9997
2 40545  56.8942 351.3866 0002012 233.2432 126.7471  1.70475522 26133
IRNSS-1D                
1 40547U 15018A   25175.53030810 -.00000264  00000+0  00000+0 0  9996
2 40547  26.7499 246.1972 0022951 191.4452 138.0353  1.00272616 37395
BEIDOU-3S IGSO-1S (C31) 
1 40549U 15019A   25175.80745226 -.00000203  00000+0  00000+0 0  9996
2 40549  49.8729 299.7618 0040301 192.2667 166.9319  1.00275930 37480
GPS BIIF-10 (PRN 08)    
1 40730U 15033A   25176.24229851 -.00000041  00000+0  00000+0 0  9994
2 40730  54.2704 281.7836 0103989  25.2055 335.3236  2.00574414 72856
BEIDOU-3S M2S (C58)     
1 40748U 15037A   25175.17455587 -.00000093  00000+0  00000+0 0  9992
2 40748  55.1858 314.3470 0009046 251.4891 108.3948  1.86229087 67456
BEIDOU-3S M1S (C57)     
1 40749U 15037B   25174.35365781 -.00000092  00000+0  00000+0 0  9997
2 40749  55.1832 314.3667 0003038  25.3722 334.6252  1.86253715 67449
GSAT0205 (GALILEO 9)    
1 40889U 15045A   25175.41991216  .00000048  00000+0  00000+0 0  9997
2 40889  55.0636 231.4872 0002617   0.2851 359.8140  1.70473493 60919
GSAT0206 (GALILEO 10)   
1 40890U 15045B   25172.12103116  .00000046  00000+0  00000+0 0  9996
2 40890  55.0635 231.5735 0001523 318.6804  41.3943  1.70473693 60880
BEIDOU-3S IGSO-2S (C56) 
1 40938U 15053A   25176.58107141 -.00000126  00000+0  00000+0 0  9994
2 40938  49.7723 263.0189 0060204 189.0032 126.6880  1.00264997 35773
GPS BIIF-11 (PRN 10)    
1 41019U 15062A   25175.79875255 -.00000069  00000+0  00000+0 0  9991
2 41019  56.7044  44.6111 0103494 228.1322 131.0382  2.00566879 70661
GSAT-15 (GAGAN/PRN 139) 
1 41028U 15065A   25175.88239062 -.00000258  00000+0  00000+0 0  9994
2 41028   0.0623 256.1067 0003688 177.3106 251.0218  1.00271001 35217
GSAT0209 (GALILEO 12)   
1 41174U 15079A   25174.04928287 -.00000014  00000+0  00000+0 0  9992
2 41174  55.6123 111.1238 0005079 332.4683  27.4586  1.70473641 58657
GSAT0208 (GALILEO 11)   
1 41175U 15079B   25175.44245961 -.00000021  00000+0  00000+0 0  9997
2 41175  55.6114 111.0827 0004546 332.7565  27.1728  1.70473722 59095
IRNSS-1E                
1 41241U 16003A   25175.68687715 -.00000327  00000+0  00000+0 0  9991
2 41241  32.4439  64.9406 0017933 181.2414  25.7198  1.00265490 34491
GPS BIIF-12 (PRN 32)    
1 41328U 16007A   25175.88106115 -.00000036  00000+0  00000+0 0  9990
2 41328  55.3054 103.6413 0087882 242.9139 116.1665  2.00569374 68672
COSMOS 2514 (751)       
1 41330U 16008A   25175.70873323 -.00000074  00000+0  00000+0 0  9999
2 41330  65.2293 325.2546 0010826 199.6564 160.2878  2.13102552 73007
IRNSS-1F                
1 41384U 16015A   25176.07757119  .00000154  00000+0  00000+0 0  9999
2 41384   4.4602 105.8505 0017850 180.5459  47.5000  1.00267594 34079
BEIDOU-2 IGSO-6 (C13)   
1 41434U 16021A   25176.55986032 -.00000164  00000+0  00000+0 0  9995
2 41434  59.7224  41.5946 0053787 228.7483 300.1553  1.00285483 33903
IRNSS-1G                
1 41469U 16027A   25175.91822618 -.00000339  00000+0  00000+0 0  9991
2 41469   4.3203 106.7575 0005969 356.1468 270.4781  1.00267826 33592
GSAT0211 (GALILEO 14)   
1 41549U 16030A   25174.39310624  .00000051  00000+0  00000+0 0  9994
2 41549  55.2122 231.5622 0002950 308.9191  51.1511  1.70473753 56552
GSAT0210 (GALILEO 13)   
1 41550U 16030B   25175.82406241  .00000046  00000+0  00000+0 0  9990
2 41550  55.2115 231.5210 0003971 231.1235 128.9401  1.70474040 56572
BEIDOU-2 G7 (C03)       
1 41586U 16037A   25175.66798179 -.00000355  00000+0  00000+0 0  9996
2 41586   1.7828  69.0253 0009530   8.5089 186.4458  1.00276655  3308
EUTELSAT 117 WEST B (W*)
1 41589U 16038B   25175.54837604 -.00000010  00000+0  00000+0 0  9992
2 41589   0.0132 155.3297 0000295 295.4073 262.6113  1.00269273 33123
GSAT0207 (GALILEO 15)   
1 41859U 16069A   25175.51584569 -.00000022  00000+0  00000+0 0  9995
2 41859  55.2809 110.9943 0005114 319.1760  40.7391  1.70473673 53306
GSAT0212 (GALILEO 16)   
1 41860U 16069B   25173.02336967 -.00000006  00000+0  00000+0 0  9990
2 41860  55.2772 111.0591 0004215 345.6139  14.3316  1.70473846 53512
GSAT0213 (GALILEO 17)   
1 41861U 16069C   25174.56446015 -.00000018  00000+0  00000+0 0  9990
2 41861  55.2801 111.0236 0004859 301.9465  57.9592  1.70474265 53530
GSAT0214 (GALILEO 18)   
1 41862U 16069D   25171.77723651  .00000007  00000+0  00000+0 0  9992
2 41862  55.2776 111.0941 0004386 305.8361  54.0875  1.70473969 53484
SES-15 (WAAS/PRN 133)   
1 42709U 17026A   25176.18839104  .00000059  00000+0  00000+0 0  9995
2 42709   0.0219  22.5924 0000214  18.1757 171.4565  1.00269683 30609
QZS-2 (QZSS/PRN 194)    
1 42738U 17028A   25175.52236027 -.00000145  00000+0  00000+0 0  9998
2 42738  39.9800 248.3811 0758568 269.3015  84.9625  1.00282442  4042
QZS-3 (QZSS/PRN 199)    
1 42917U 17048A   25176.01622191 -.00000349  00000+0  00000+0 0  9991
2 42917   0.0605 194.0440 0001682 264.4050 307.8420  1.00269692 28780
COSMOS 2522 (752)       
1 42939U 17055A   25176.48613597  .00000078  00000+0  00000+0 0  9992
2 42939  64.0776 204.0268 0010582 240.8088 119.1530  2.13101890 60378
QZS-4 (QZSS/PRN 195)    
1 42965U 17062A   25175.81419250 -.00000364  00000+0  00000+0 0  9994
2 42965  40.3238 348.0473 0745654 271.6976  82.4206  1.00248390 28230
BEIDOU-3 M1 (C19)       
1 43001U 17069A   25176.05813637 -.00000059  00000+0  00000+0 0  9998
2 43001  56.3756  74.8763 0010203 319.8998  40.0542  1.86231175 51959
BEIDOU-3 M2 (C20)       
1 43002U 17069B   25175.45918367 -.00000062  00000+0  00000+0 0  9992
2 43002  56.3742  74.9325 0008789 345.4954  14.5055  1.86230772 51938
GSAT0215 (GALILEO 19)   
1 43055U 17079A   25175.78694297  .00000047  00000+0  00000+0 0  9992
2 43055  55.1897 231.3403 0003658 257.4244 102.6338  1.70474355 46896
GSAT0216 (GALILEO 20)   
1 43056U 17079B   25174.90519177  .00000050  00000+0  00000+0 0  9993
2 43056  55.1900 231.3646 0004036 267.0941  92.9578  1.70474500 46892
GSAT0217 (GALILEO 21)   
1 43057U 17079C   25173.95264635  .00000051  00000+0  00000+0 0  9995
2 43057  55.1880 231.3893 0004533 278.3732  81.6704  1.70474282 46869
GSAT0218 (GALILEO 22)   
1 43058U 17079D   25175.93246764  .00000046  00000+0  00000+0 0  9993
2 43058  55.1878 231.3323 0004857 265.7492  94.2945  1.70474544 46898
BEIDOU-3 M7 (C27)       
1 43107U 18003A   25175.74144708 -.00000094  00000+0  00000+0 0  9994
2 43107  54.6437 314.7544 0004466  88.2506 271.7833  1.86232452 50697
BEIDOU-3 M8 (C28)       
1 43108U 18003B   25175.14798829 -.00000094  00000+0  00000+0 0  9998
2 43108  54.6372 314.7587 0002912 253.5894 106.3611  1.86230909 50696
BEIDOU-3 M4 (C22)       
1 43207U 18018A   25174.51545970 -.00000065  00000+0  00000+0 0  9999
2 43207  56.3331  75.0038 0007377  13.0151 347.0257  1.86231037 50067
BEIDOU-3 M3 (C21)       
1 43208U 18018B   25172.97113878 -.00000063  00000+0  00000+0 0  9994
2 43208  56.3311  75.0594 0008492 334.4944  25.4818  1.86230923 50032
BEIDOU-3 M9 (C29)       
1 43245U 18029A   25175.87346290 -.00000092  00000+0  00000+0 0  9997
2 43245  54.5161 312.4203 0000912 174.8373 185.1478  1.86232505 49247
BEIDOU-3 M10 (C30)      
1 43246U 18029B   25175.80629343 -.00000092  00000+0  00000+0 0  9994
2 43246  54.5137 312.4503 0003419  29.4018 330.6013  1.86229062 49235
IRNSS-1I                
1 43286U 18035A   25175.82614172  .00000057  00000+0  00000+0 0  9991
2 43286  29.1638  79.7671 0018053 179.9836   5.8665  1.00272553 26486
COSMOS 2527 (756)       
1 43508U 18053A   25175.50777838 -.00000036  00000+0  00000+0 0  9990
2 43508  65.3788  85.8560 0007220 237.4744 122.4741  2.13102145 54653
BEIDOU-2 IGSO-7 (C16)   
1 43539U 18057A   25176.54370062 -.00000084  00000+0  00000+0 0  9994
2 43539  55.1677 166.1447 0089791 236.6609 178.0035  1.00254212 25549
GSAT0221 (GALILEO 25)   
1 43564U 18060A   25173.48852021 -.00000083  00000+0  00000+0 0  9995
2 43564  57.2686 351.4903 0002468 298.3822  61.6056  1.70475803 43036
GSAT0222 (GALILEO 26)   
1 43565U 18060B   25174.88076964 -.00000089  00000+0  00000+0 0  9991
2 43565  57.2699 351.4552 0001950 237.5769 122.4116  1.70475546 43106
GSAT0219 (GALILEO 23)   
1 43566U 18060C   25176.27527796 -.00000095  00000+0  00000+0 0  9998
2 43566  57.2711 351.4196 0001811 316.6395  43.3485  1.70475851 43105
GSAT0220 (GALILEO 24)   
1 43567U 18060D   25175.32295116 -.00000091  00000+0  00000+0 0  9998
2 43567  57.2709 351.4450 0001951 300.3017  59.6846  1.70475543 43066
BEIDOU-3 M5 (C23)       
1 43581U 18062A   25175.49450103  .00000086  00000+0  00000+0 0  9996
2 43581  54.1004 194.4647 0005637 281.1719  78.8184  1.86228595 46970
BEIDOU-3 M6 (C24)       
1 43582U 18062B   25176.43243130  .00000070  00000+0  00000+0 0  9995
2 43582  54.0999 194.4217 0004553   1.2248 358.8233  1.86229527 46994
BEIDOU-3 M12 (C26)      
1 43602U 18067A   25174.75748019  .00000099  00000+0  00000+0 0  9993
2 43602  54.1933 193.1942 0007184  23.7597 336.3290  1.86227745 46440
BEIDOU-3 M11 (C25)      
1 43603U 18067B   25175.42850051  .00000087  00000+0  00000+0 0  9996
2 43603  54.1905 193.1359 0004074   5.8382 354.2180  1.86227235 46485
BEIDOU-3 M13 (C32)      
1 43622U 18072A   25175.38697862 -.00000063  00000+0  00000+0 0  9992
2 43622  56.3063  74.4957 0006863 322.6186  37.3601  1.86231360 45996
BEIDOU-3 M14 (C33)      
1 43623U 18072B   25175.25245727 -.00000063  00000+0  00000+0 0  9998
2 43623  56.3081  74.4939 0005686 354.7578   5.2621  1.86231348 45981
